STARLINK-1598           
1 46160U 20057AV  20253.25001157  .00022184  00000-0  21562-3 0  9990
2 46160  52.9997 333.6056 0000899  32.3480 287.7360 15.66253278  1775
STARLINK-1600           
1 46161U 20057AW  20253.25001157  .00023885  00000-0  23181-3 0  9999
2 46161  52.9977 333.6245 0001497  74.0433 233.2309 15.66240563  1828
STARLINK-1603           
1 46162U 20057AX  20253.25001157  .00022312  00000-0  21680-3 0  9996
2 46162  52.9996 333.5938 0000945  34.8007 288.2430 15.66255955  1776
STARLINK-1610           
1 46163U 20057AY  20253.25001157  .00022615  00000-0  21939-3 0  9990
2 46163  52.9997 333.5886 0001373  71.8162 256.5215 15.66287859  1776
STARLINK-1612           
1 46164U 20057AZ  20253.25001157  .00022401  00000-0  21763-3 0  9999
2 46164  52.9993 333.5792 0001262 328.7259   2.0245 15.66258015  1776
STARLINK-1613           
1 46165U 20057BA  20253.50001157 -.00105492  00000-0 -11578-2 0  9994
2 46165  53.0013 332.7499 0001424  57.3139  50.4330 15.62827921  4127
STARLINK-1615           
1 46166U 20057BB  20253.25001157 -.01097275  00000-0 -14512-1 0  9997
2 46166  52.9978 333.9961 0001520  48.9298  96.7426 15.60311524  1820
STARLINK-1626           
1 46167U 20057BC  20253.25001157  .00027640  00000-0  30662-3 0  9990
2 46167  52.9994 333.9637 0001608 314.5553 189.7265 15.62756437  1778
STARLINK-1627           
1 46168U 20057BD  20253.50001157 -.00109471  00000-0 -12034-2 0  9996
2 46168  52.9994 332.7317 0001920 307.2224 167.6732 15.62802400  4120
STARLINK-1628           
1 46169U 20057BE  20253.50001157  .00000581  00000-0  12180-4 0  9991
2 46169  53.0011 332.7227 0001304  50.9819  63.0900 15.62759837  4122
STARLINK-1632           
1 46170U 20057BF  20253.25001157 -.00038422  00000-0 -41591-3 0  9999
2 46170  52.9998 333.9554 0001181  57.1276  93.0302 15.62743284  1777
STARLINK-1633           
1 46171U 20057BG  20253.25001157  .00024324  00000-0  23590-3 0  9993
2 46171  52.9980 333.6341 0001440  67.2860 235.0450 15.66246831  1827
